{"type": "FeatureCollection", "features": [ {"type": "Feature", "properties": {"norad_id": 28659, "name": "DIRECTV 8", "group": "intelsat", "lat": 0.009596473517045732, "lon": 32.29764330578511, "alt_km": 35790.44322880355, "timestamp": "2025-12-24T03:53:29.309930+00:00", "meta": {"OBJECT_NAME": "DIRECTV 8", "OBJECT_ID": "2005-019A", "EPOCH": "2025-12-23T17:41:55.546080", "MEAN_MOTION": 1.00271595, "ECCENTRICITY": 0.0002982, "INCLINATION": 0.018, "RA_OF_ASC_NODE": 23.2581, "ARG_OF_PERICENTER": 259.0434, "MEAN_ANOMALY": 316.6613, "EPHEMERIS_TYPE": 0, "CLASSIFICATION_TYPE": "U", "NORAD_CAT_ID": 28659, "ELEMENT_SET_NO": 999, "REV_AT_EPOCH": 7531, "BSTAR": 0, "MEAN_MOTION_DOT": 2.2e-07, "MEAN_MOTION_DDOT": 0}, "tle": {"line1": "1 28659U 05019A   25357.73744845  .00000022  00000+0  00000+0 0  9991", "line2": "2 28659   0.0180  23.2581 0002982 259.0434 316.6613  1.00271595 75312"}}, "geometry": {"type": "Point", "coordinates": [32.29764330578511, 0.009596473517045732]}}, {"type": "Feature", "properties": {"norad_id": 28702, "name": "GALAXY 28 (G-28)", "group": "intelsat", "lat": -0.8881603020368222, "lon": 62.65113199179383, "alt_km": 35797.10651988386, "timestamp": "2025-12-24T03:53:29.309942+00:00", "meta": {"OBJECT_NAME": "GALAXY 28 (G-28)", "OBJECT_ID": "2005-022A", "EPOCH": "2025-12-20T00:49:30.482112", "MEAN_MOTION": 1.00271047, "ECCENTRICITY": 0.00029384, "INCLINATION": 2.8382, "RA_OF_ASC_NODE": 81.1982, "ARG_OF_PERICENTER": 194.0723, "MEAN_ANOMALY": 97.2981, "EPHEMERIS_TYPE": 0, "CLASSIFICATION_TYPE": "U", "NORAD_CAT_ID": 28702, "ELEMENT_SET_NO": 999, "REV_AT_EPOCH": 5017, "BSTAR": 0, "MEAN_MOTION_DOT": -1.65e-06, "MEAN_MOTION_DDOT": 0}, "tle": {"line1": "1 28702U 05022A   25354.03438058 -.00000165  00000+0  00000+0 0  9999", "line2": "2 28702   2.8382  81.1982 0002938 194.0723  97.2981  1.00271047 50172"}}, "geometry": {"type": "Point", "coordinates": [62.65113199179383, -0.8881603020368222]}}, {"type": "Feature", "properties": {"norad_id": 29236, "name": "GALAXY 16 (G-16)", "group": "intelsat", "lat": 0.021771451342417217, "lon": 52.31322218301201, "alt_km": 35794.25898434472, "timestamp": "2025-12-24T03:53:29.309955+00:00", "meta": {"OBJECT_NAME": "GALAXY 16 (G-16)", "OBJECT_ID": "2006-023A", "EPOCH": "2025-12-23T16:05:04.821216", "MEAN_MOTION": 1.00271325, "ECCENTRICITY": 0.000251, "INCLINATION": 0.0451, "RA_OF_ASC_NODE": 194.2073, "ARG_OF_PERICENTER": 78.9639, "MEAN_ANOMALY": 321.5434, "EPHEMERIS_TYPE": 0, "CLASSIFICATION_TYPE": "U", "NORAD_CAT_ID": 29236, "ELEMENT_SET_NO": 999, "REV_AT_EPOCH": 7121, "BSTAR": 0, "MEAN_MOTION_DOT": -1.06e-06, "MEAN_MOTION_DDOT": 0}, "tle": {"line1": "1 29236U 06023A   25357.67019469 -.00000106  00000+0  00000+0 0  9993", "line2": "2 29236   0.0451 194.2073 0002510  78.9639 321.5434  1.00271325 71214"}}, "geometry": {"type": "Point", "coordinates": [52.31322218301201, 0.021771451342417217]}}, {"type": "Feature", "properties": {"norad_id": 29494, "name": "DIRECTV 9S", "group": "intelsat", "lat": -1.0575379780817045, "lon": 50.144248172499104, "alt_km": 35794.54383004442, "timestamp": "2025-12-24T03:53:29.309967+00:00", "meta": {"OBJECT_NAME": "DIRECTV 9S", "OBJECT_ID": "2006-043A", "EPOCH": "2025-12-23T16:04:27.378912", "MEAN_MOTION": 1.00272016, "ECCENTRICITY": 0.0002928, "INCLINATION": 1.9666, "RA_OF_ASC_NODE": 83.0964, "ARG_OF_PERICENTER": 194.5447, "MEAN_ANOMALY": 314.724, "EPHEMERIS_TYPE": 0, "CLASSIFICATION_TYPE": "U", "NORAD_CAT_ID": 29494, "ELEMENT_SET_NO": 999, "REV_AT_EPOCH": 4962, "BSTAR": 0, "MEAN_MOTION_DOT": -9.3e-07, "MEAN_MOTION_DDOT": 0}, "tle": {"line1": "1 29494U 06043A   25357.66976133 -.00000093  00000+0  00000+0 0  9995", "line2": "2 29494   1.9666  83.0964 0002928 194.5447 314.7240  1.00272016 49624"}}, "geometry": {"type": "Point", "coordinates": [50.144248172499104, -1.0575379780817045]}}, {"type": "Feature", "properties": {"norad_id": 31307, "name": "GALAXY 17 (G-17)", "group": "intelsat", "lat": -0.6719615665709621, "lon": 66.3393368046593, "alt_km": 35809.28543528283, "timestamp": "2025-12-24T03:53:29.309978+00:00", "meta": {"OBJECT_NAME": "GALAXY 17 (G-17)", "OBJECT_ID": "2007-016B", "EPOCH": "2025-12-23T12:43:41.172960", "MEAN_MOTION": 1.00269516, "ECCENTRICITY": 0.0005358, "INCLINATION": 2.5254, "RA_OF_ASC_NODE": 82.1638, "ARG_OF_PERICENTER": 172.276, "MEAN_ANOMALY": 303.8129, "EPHEMERIS_TYPE": 0, "CLASSIFICATION_TYPE": "U", "NORAD_CAT_ID": 31307, "ELEMENT_SET_NO": 999, "REV_AT_EPOCH": 6804, "BSTAR": 0, "MEAN_MOTION_DOT": -1.86e-06, "MEAN_MOTION_DDOT": 0}, "tle": {"line1": "1 31307U 07016B   25357.53033765 -.00000186  00000+0  00000+0 0  9996", "line2": "2 31307   2.5254  82.1638 0005358 172.2760 303.8129  1.00269516 68042"}}, "geometry": {"type": "Point", "coordinates": [66.3393368046593, -0.6719615665709621]}}, {"type": "Feature", "properties": {"norad_id": 31862, "name": "DIRECTV 10", "group": "intelsat", "lat": 0.002200388194830224, "lon": 48.51407246450759, "alt_km": 35787.06031783822, "timestamp": "2025-12-24T03:53:29.309990+00:00", "meta": {"OBJECT_NAME": "DIRECTV 10", "OBJECT_ID": "2007-032A", "EPOCH": "2025-12-23T16:04:04.914912", "MEAN_MOTION": 1.00272171, "ECCENTRICITY": 2.72e-05, "INCLINATION": 0.0092, "RA_OF_ASC_NODE": 113.2913, "ARG_OF_PERICENTER": 95.817, "MEAN_ANOMALY": 21.5753, "EPHEMERIS_TYPE": 0, "CLASSIFICATION_TYPE": "U", "NORAD_CAT_ID": 31862, "ELEMENT_SET_NO": 999, "REV_AT_EPOCH": 4383, "BSTAR": 0, "MEAN_MOTION_DOT": -8.2e-07, "MEAN_MOTION_DDOT": 0}, "tle": {"line1": "1 31862U 07032A   25357.66950133 -.00000082  00000+0  00000+0 0  9996", "line2": "2 31862   0.0092 113.2913 0000272  95.8170  21.5753  1.00272171 43836"}}, "geometry": {"type": "Point", "coordinates": [48.51407246450759, 0.002200388194830224]}}, {"type": "Feature", "properties": {"norad_id": 32253, "name": "INTELSAT 11 (IS-11)", "group": "intelsat", "lat": -2.8576388691715047, "lon": -33.14338705613788, "alt_km": 36122.36498225771, "timestamp": "2025-12-24T03:53:29.310002+00:00", "meta": {"OBJECT_NAME": "INTELSAT 11 (IS-11)", "OBJECT_ID": "2007-044B", "EPOCH": "2025-12-23T17:23:57.267168", "MEAN_MOTION": 0.99052963, "ECCENTRICITY": 0.0008569, "INCLINATION": 3.107, "RA_OF_ASC_NODE": 80.8548, "ARG_OF_PERICENTER": 170.4374, "MEAN_ANOMALY": 279.6071, "EPHEMERIS_TYPE": 0, "CLASSIFICATION_TYPE": "U", "NORAD_CAT_ID": 32253, "ELEMENT_SET_NO": 999, "REV_AT_EPOCH": 6671, "BSTAR": 0, "MEAN_MOTION_DOT": -1.53e-06, "MEAN_MOTION_DDOT": 0}, "tle": {"line1": "1 32253U 07044B   25357.72496837 -.00000153  00000+0  00000+0 0  9996", "line2": "2 32253   3.1070  80.8548 0008569 170.4374 279.6071  0.99052963 66710"}}, "geometry": {"type": "Point", "coordinates": [-33.14338705613788, -2.8576388691715047]}}, {"type": "Feature", "properties": {"norad_id": 32388, "name": "HORIZONS-2", "group": "intelsat", "lat": -0.1786572115923638, "lon": 77.53834432790029, "alt_km": 35805.14356277704, "timestamp": "2025-12-24T03:53:29.310014+00:00", "meta": {"OBJECT_NAME": "HORIZONS-2", "OBJECT_ID": "2007-063B", "EPOCH": "2025-12-23T12:31:54.064992", "MEAN_MOTION": 1.00270354, "ECCENTRICITY": 0.0004694, "INCLINATION": 2.1479, "RA_OF_ASC_NODE": 82.8448, "ARG_OF_PERICENTER": 195.6176, "MEAN_ANOMALY": 288.034, "EPHEMERIS_TYPE": 0, "CLASSIFICATION_TYPE": "U", "NORAD_CAT_ID": 32388, "ELEMENT_SET_NO": 999, "REV_AT_EPOCH": 6605, "BSTAR": 0, "MEAN_MOTION_DOT": -2.33e-06, "MEAN_MOTION_DDOT": 0}, "tle": {"line1": "1 32388U 07063B   25357.52215353 -.00000233  00000+0  00000+0 0  9995", "line2": "2 32388   2.1479  82.8448 0004694 195.6176 288.0340  1.00270354 66055"}}, "geometry": {"type": "Point", "coordinates": [77.53834432790029, -0.1786572115923638]}}, {"type": "Feature", "properties": {"norad_id": 32729, "name": "DIRECTV 11", "group": "intelsat", "lat": 0.020608664544204874, "lon": 52.067573207425276, "alt_km": 35789.08408048653, "timestamp": "2025-12-24T03:53:29.310026+00:00", "meta": {"OBJECT_NAME": "DIRECTV 11", "OBJECT_ID": "2008-013A", "EPOCH": "2025-12-21T16:09:00.789984", "MEAN_MOTION": 1.00267418, "ECCENTRICITY": 8.567e-05, "INCLINATION": 0.0458, "RA_OF_ASC_NODE": 200.3144, "ARG_OF_PERICENTER": 330.5483, "MEAN_ANOMALY": 62.6867, "EPHEMERIS_TYPE": 0, "CLASSIFICATION_TYPE": "U", "NORAD_CAT_ID": 32729, "ELEMENT_SET_NO": 999, "REV_AT_EPOCH": 4381, "BSTAR": 0, "MEAN_MOTION_DOT": -1.03e-06, "MEAN_MOTION_DDOT": 0}, "tle": {"line1": "1 32729U 08013A   25355.67292581 -.00000103  00000+0  00000+0 0  9998", "line2": "2 32729   0.0458 200.3144 0000856 330.5483  62.6867  1.00267418 43811"}}, "geometry": {"type": "Point", "coordinates": [52.067573207425276, 0.020608664544204874]}}, {"type": "Feature", "properties": {"norad_id": 32951, "name": "GALAXY 18 (G-18)", "group": "intelsat", "lat": 0.01647916927926531, "lon": 28.33060134851387, "alt_km": 35790.455765923776, "timestamp": "2025-12-24T03:53:29.310038+00:00", "meta": {"OBJECT_NAME": "GALAXY 18 (G-18)", "OBJECT_ID": "2008-024A", "EPOCH": "2025-12-23T17:40:55.643232", "MEAN_MOTION": 1.00271951, "ECCENTRICITY": 0.0002962, "INCLINATION": 0.0145, "RA_OF_ASC_NODE": 299.5759, "ARG_OF_PERICENTER": 337.9968, "MEAN_ANOMALY": 317.1726, "EPHEMERIS_TYPE": 0, "CLASSIFICATION_TYPE": "U", "NORAD_CAT_ID": 32951, "ELEMENT_SET_NO": 999, "REV_AT_EPOCH": 4409, "BSTAR": 0, "MEAN_MOTION_DOT": 4.6e-07, "MEAN_MOTION_DDOT": 0}, "tle": {"line1": "1 32951U 08024A   25357.73675513  .00000046  00000+0  00000+0 0  9991", "line2": "2 32951   0.0145 299.5759 0002962 337.9968 317.1726  1.00271951 44092"}}, "geometry": {"type": "Point", "coordinates": [28.33060134851387, 0.01647916927926531]}}]}